EUTELSAT 21B            
1 38992U 12062B   25261.88447703  .00000111  00000+0  00000+0 0  9990
2 38992   0.0733  14.5473 0003125 162.8248 160.7112  1.00273552 47107
EUTELSAT 70B            
1 39020U 12069A   25261.84003030 -.00000063  00000+0  00000+0 0  9994
2 39020   0.0654 351.1527 0003996 189.2528 190.5185  1.00270956 46781
EUTELSAT 117 WEST A     
1 39122U 13012A   25261.91571264  .00000000  00000+0  00000+0 0  9993
2 39122   0.0147 178.6489 0002877   8.5365  23.7439  1.00269175 45711
EUTELSAT 7B             
1 39163U 13022A   25261.93447597  .00000029  00000+0  00000+0 0  9993
2 39163   0.0686 358.8610 0000764 356.3965 346.2349  1.00272667 45235
EXPRESS-AT1             
1 39612U 14010A   25261.80720549  .00000060  00000+0  00000+0 0  9992
2 39612   0.0148 216.9594 0000055 180.2225 307.3727  1.00267104 42097
EUTELSAT 3B             
1 39773U 14030A   25261.93947535  .00000000  00000+0  00000+0 0  9996
2 39773   0.0643 350.6096 0004317 189.1990 159.6089  1.00270197 41342
EUTELSAT 115 WEST B     
1 40425U 15010B   25261.92690618 -.00000045  00000+0  00000+0 0  9997
2 40425   0.0410   9.9242 0000183 122.8261  84.1298  1.00270353 38679
